STARLINK-1911           
1 46749U 20074L   25231.19991615  .00002314  00000+0  17417-3 0  9999
2 46749  53.0536 150.6294 0001693  77.7539 282.3640 15.06406322266174
STARLINK-1922           
1 46753U 20074Q   25231.04142024 -.00000234  00000+0  31659-5 0  9996
2 46753  53.0548 151.3437 0001666  96.0756 264.0423 15.06393302266151
STARLINK-1928           
1 46758U 20074V   25231.16812930 -.00000299  00000+0 -11826-5 0  9990
2 46758  53.0558 155.7760 0001674  87.6393 272.4788 15.06396380266107
STARLINK-1903           
1 46764U 20074AB  25231.04833594  .00071285  00000+0  80351-3 0  9991
2 46764  53.0241  98.7643 0000775  79.4771 280.6329 15.61906746266880
STARLINK-1832           
1 46780U 20074AT  25231.07551492 -.00000435  00000+0 -10308-4 0  9993
2 46780  53.0546 141.1908 0001674  89.3781 270.7399 15.06389783266009
STARLINK-1835           
1 46782U 20074AV  25231.06446128  .00000827  00000+0  74423-4 0  9994
2 46782  53.0545 141.2383 0001389  88.5396 271.5752 15.06387258265998
STARLINK-1882           
1 46784U 20074AX  25230.97233294  .00001089  00000+0  92021-4 0  9998
2 46784  53.0549 141.8817 0001239  59.7028 300.4083 15.06394765265921
STARLINK-1893           
1 46786U 20074AZ  25230.91517683 -.00000257  00000+0  16643-5 0  9995
2 46786  53.0538 121.9069 0001497  99.4061 260.7097 15.06387188266535
STARLINK-1931           
1 46790U 20074BD  25231.15199914 -.00000470  00000+0 -12658-4 0  9999
2 46790  53.0557 150.8462 0001516  92.7166 267.3996 15.06388694265828
STARLINK-1934           
1 46792U 20074BF  25231.06077190  .00001420  00000+0  11425-3 0  9996
2 46792  53.0552 141.2578 0001560  83.9956 276.1211 15.06392579265954
STARLINK-1942           
1 46794U 20074BH  25231.03036345 -.00000667  00000+0 -25891-4 0  9999
2 46794  53.0545 151.3916 0001419  87.4300 272.6851 15.06385047265819
STARLINK-1944           
1 46796U 20074BK  25231.07181987  .00002367  00000+0  17780-3 0  9992
2 46796  53.0540 141.2096 0001656 111.2018 248.9148 15.06390241265950
STARLINK-1777           
1 47122U 20088A   25230.92531868  .00001654  00000+0  12994-3 0  9991
2 47122  53.0541 131.8671 0001531  91.8472 268.2693 15.06384334261275
STARLINK-1812           
1 47126U 20088E   25230.88476892  .00000616  00000+0  60259-4 0  9990
2 47126  53.0534 132.0414 0001313  86.9386 273.1753 15.06386860261274
STARLINK-1843           
1 47133U 20088M   25230.92992192  .00001386  00000+0  11198-3 0  9991
2 47133  53.0555 121.8436 0001463  85.8245 274.2911 15.06389070261413
STARLINK-1845           
1 47135U 20088P   25230.92255394  .00002158  00000+0  16378-3 0  9992
2 47135  53.0551 121.8786 0001508  91.5113 268.6049 15.06386086261410
STARLINK-1856           
1 47143U 20088X   25230.92623661  .00000830  00000+0  74658-4 0  9998
2 47143  53.0550 121.8586 0001671  93.4844 266.6336 15.06386069261417
