[{"OBJECT_NAME":"STARLINK-1911","OBJECT_ID":"2020-074L","EPOCH":"2025-08-19T04:47:52.755360","MEAN_MOTION":15.06406322,"ECCENTRICITY":0.0001693,"INCLINATION":53.0536,"RA_OF_ASC_NODE":150.6294,"ARG_OF_PERICENTER":77.7539,"MEAN_ANOMALY":282.364,"EPHEMERIS_TYPE":0,"CLASSIFICATION_TYPE":"U","NORAD_CAT_ID":46749,"ELEMENT_SET_NO":999,"REV_AT_EPOCH":26617,"BSTAR":0.00017417,"MEAN_MOTION_DOT":2.314e-5,"MEAN_MOTION_DDOT":0},{"OBJECT_NAME":"STARLINK-1922","OBJECT_ID":"2020-074Q","EPOCH":"2025-08-19T00:59:38.708736","MEAN_MOTION":15.06393302,"ECCENTRICITY":0.0001666,"INCLINATION":53.0548,"RA_OF_ASC_NODE":151.3437,"ARG_OF_PERICENTER":96.0756,"MEAN_ANOMALY":264.0423,"EPHEMERIS_TYPE":0,"CLASSIFICATION_TYPE":"U","NORAD_CAT_ID":46753,"ELEMENT_SET_NO":999,"REV_AT_EPOCH":26615,"BSTAR":3.1659e-6,"MEAN_MOTION_DOT":-2.34e-6,"MEAN_MOTION_DDOT":0},{"OBJECT_NAME":"STARLINK-1928","OBJECT_ID":"2020-074V","EPOCH":"2025-08-19T04:02:06.371520","MEAN_MOTION":15.0639638,"ECCENTRICITY":0.0001674,"INCLINATION":53.0558,"RA_OF_ASC_NODE":155.776,"ARG_OF_PERICENTER":87.6393,"MEAN_ANOMALY":272.4788,"EPHEMERIS_TYPE":0,"CLASSIFICATION_TYPE":"U","NORAD_CAT_ID":46758,"ELEMENT_SET_NO":999,"REV_AT_EPOCH":26610,"BSTAR":-1.1826e-6,"MEAN_MOTION_DOT":-2.99e-6,"MEAN_MOTION_DDOT":0},{"OBJECT_NAME":"STARLINK-1903","OBJECT_ID":"2020-074AB","EPOCH":"2025-08-19T01:09:36.225216","MEAN_MOTION":15.61906746,"ECCENTRICITY":7.75e-5,"INCLINATION":53.0241,"RA_OF_ASC_NODE":98.7643,"ARG_OF_PERICENTER":79.4771,"MEAN_ANOMALY":280.6329,"EPHEMERIS_TYPE":0,"CLASSIFICATION_TYPE":"U","NORAD_CAT_ID":46764,"ELEMENT_SET_NO":999,"REV_AT_EPOCH":26688,"BSTAR":0.00080351,"MEAN_MOTION_DOT":0.00071285,"MEAN_MOTION_DDOT":0},{"OBJECT_NAME":"STARLINK-1832","OBJECT_ID":"2020-074AT","EPOCH":"2025-08-19T01:48:44.489088","MEAN_MOTION":15.06389783,"ECCENTRICITY":0.0001674,"INCLINATION":53.0546,"RA_OF_ASC_NODE":141.1908,"ARG_OF_PERICENTER":89.3781,"MEAN_ANOMALY":270.7399,"EPHEMERIS_TYPE":0,"CLASSIFICATION_TYPE":"U","NORAD_CAT_ID":46780,"ELEMENT_SET_NO":999,"REV_AT_EPOCH":26600,"BSTAR":-1.0308e-5,"MEAN_MOTION_DOT":-4.35e-6,"MEAN_MOTION_DDOT":0},{"OBJECT_NAME":"STARLINK-1835","OBJECT_ID":"2020-074AV","EPOCH":"2025-08-19T01:32:49.454592","MEAN_MOTION":15.06387258,"ECCENTRICITY":0.0001389,"INCLINATION":53.0545,"RA_OF_ASC_NODE":141.2383,"ARG_OF_PERICENTER":88.5396,"MEAN_ANOMALY":271.5752,"EPHEMERIS_TYPE":0,"CLASSIFICATION_TYPE":"U","NORAD_CAT_ID":46782,"ELEMENT_SET_NO":999,"REV_AT_EPOCH":26599,"BSTAR":7.4423e-5,"MEAN_MOTION_DOT":8.27e-6,"MEAN_MOTION_DDOT":0},{"OBJECT_NAME":"STARLINK-1882","OBJECT_ID":"2020-074AX","EPOCH":"2025-08-18T23:20:09.566016","MEAN_MOTION":15.06394765,"ECCENTRICITY":0.0001239,"INCLINATION":53.0549,"RA_OF_ASC_NODE":141.8817,"ARG_OF_PERICENTER":59.7028,"MEAN_ANOMALY":300.4083,"EPHEMERIS_TYPE":0,"CLASSIFICATION_TYPE":"U","NORAD_CAT_ID":46784,"ELEMENT_SET_NO":999,"REV_AT_EPOCH":26592,"BSTAR":9.2021e-5,"MEAN_MOTION_DOT":1.089e-5,"MEAN_MOTION_DDOT":0},{"OBJECT_NAME":"STARLINK-1893","OBJECT_ID":"2020-074AZ","EPOCH":"2025-08-18T21:57:51.278112","MEAN_MOTION":15.06387188,"ECCENTRICITY":0.0001497,"INCLINATION":53.0538,"RA_OF_ASC_NODE":121.9069,"ARG_OF_PERICENTER":99.4061,"MEAN_ANOMALY":260.7097,"EPHEMERIS_TYPE":0,"CLASSIFICATION_TYPE":"U","NORAD_CAT_ID":46786,"ELEMENT_SET_NO":999,"REV_AT_EPOCH":26653,"BSTAR":1.6643e-6,"MEAN_MOTION_DOT":-2.57e-6,"MEAN_MOTION_DDOT":0},{"OBJECT_NAME":"STARLINK-1931","OBJECT_ID":"2020-074BD","EPOCH":"2025-08-19T03:38:52.725696","MEAN_MOTION":15.06388694,"ECCENTRICITY":0.0001516,"INCLINATION":53.0557,"RA_OF_ASC_NODE":150.8462,"ARG_OF_PERICENTER":92.7166,"MEAN_ANOMALY":267.3996,"EPHEMERIS_TYPE":0,"CLASSIFICATION_TYPE":"U","NORAD_CAT_ID":46790,"ELEMENT_SET_NO":999,"REV_AT_EPOCH":26582,"BSTAR":-1.2658e-5,"MEAN_MOTION_DOT":-4.7e-6,"MEAN_MOTION_DDOT":0},{"OBJECT_NAME":"STARLINK-1934","OBJECT_ID":"2020-074BF","EPOCH":"2025-08-19T01:27:30.692160","MEAN_MOTION":15.06392579,"ECCENTRICITY":0.000156,"INCLINATION":53.0552,"RA_OF_ASC_NODE":141.2578,"ARG_OF_PERICENTER":83.9956,"MEAN_ANOMALY":276.1211,"EPHEMERIS_TYPE":0,"CLASSIFICATION_TYPE":"U","NORAD_CAT_ID":46792,"ELEMENT_SET_NO":999,"REV_AT_EPOCH":26595,"BSTAR":0.00011425,"MEAN_MOTION_DOT":1.42e-5,"MEAN_MOTION_DDOT":0},{"OBJECT_NAME":"STARLINK-1942","OBJECT_ID":"2020-074BH","EPOCH":"2025-08-19T00:43:43.402080","MEAN_MOTION":15.06385047,"ECCENTRICITY":0.0001419,"INCLINATION":53.0545,"RA_OF_ASC_NODE":151.3916,"ARG_OF_PERICENTER":87.43,"MEAN_ANOMALY":272.6851,"EPHEMERIS_TYPE":0,"CLASSIFICATION_TYPE":"U","NORAD_CAT_ID":46794,"ELEMENT_SET_NO":999,"REV_AT_EPOCH":26581,"BSTAR":-2.5891e-5,"MEAN_MOTION_DOT":-6.67e-6,"MEAN_MOTION_DDOT":0},{"OBJECT_NAME":"STARLINK-1944","OBJECT_ID":"2020-074BK","EPOCH":"2025-08-19T01:43:25.236768","MEAN_MOTION":15.06390241,"ECCENTRICITY":0.0001656,"INCLINATION":53.054,"RA_OF_ASC_NODE":141.2096,"ARG_OF_PERICENTER":111.2018,"MEAN_ANOMALY":248.9148,"EPHEMERIS_TYPE":0,"CLASSIFICATION_TYPE":"U","NORAD_CAT_ID":46796,"ELEMENT_SET_NO":999,"REV_AT_EPOCH":26595,"BSTAR":0.0001778,"MEAN_MOTION_DOT":2.367e-5,"MEAN_MOTION_DDOT":0},{"OBJECT_NAME":"STARLINK-1777","OBJECT_ID":"2020-088A","EPOCH":"2025-08-18T22:12:27.533952","MEAN_MOTION":15.06384334,"ECCENTRICITY":0.0001531,"INCLINATION":53.0541,"RA_OF_ASC_NODE":131.8671,"ARG_OF_PERICENTER":91.8472,"MEAN_ANOMALY":268.2693,"EPHEMERIS_TYPE":0,"CLASSIFICATION_TYPE":"U","NORAD_CAT_ID":47122,"ELEMENT_SET_NO":999,"REV_AT_EPOCH":26127,"BSTAR":0.00012994,"MEAN_MOTION_DOT":1.654e-5,"MEAN_MOTION_DDOT":0},{"OBJECT_NAME":"STARLINK-1812","OBJECT_ID":"2020-088E","EPOCH":"2025-08-18T21:14:04.034688","MEAN_MOTION":15.0638686,"ECCENTRICITY":0.0001313,"INCLINATION":53.0534,"RA_OF_ASC_NODE":132.0414,"ARG_OF_PERICENTER":86.9386,"MEAN_ANOMALY":273.1753,"EPHEMERIS_TYPE":0,"CLASSIFICATION_TYPE":"U","NORAD_CAT_ID":47126,"ELEMENT_SET_NO":999,"REV_AT_EPOCH":26127,"BSTAR":6.0259e-5,"MEAN_MOTION_DOT":6.16e-6,"MEAN_MOTION_DDOT":0},{"OBJECT_NAME":"STARLINK-1843","OBJECT_ID":"2020-088M","EPOCH":"2025-08-18T22:19:05.253888","MEAN_MOTION":15.0638907,"ECCENTRICITY":0.0001463,"INCLINATION":53.0555,"RA_OF_ASC_NODE":121.8436,"ARG_OF_PERICENTER":85.8245,"MEAN_ANOMALY":274.2911,"EPHEMERIS_TYPE":0,"CLASSIFICATION_TYPE":"U","NORAD_CAT_ID":47133,"ELEMENT_SET_NO":999,"REV_AT_EPOCH":26141,"BSTAR":0.00011198,"MEAN_MOTION_DOT":1.386e-5,"MEAN_MOTION_DDOT":0},{"OBJECT_NAME":"STARLINK-1845","OBJECT_ID":"2020-088P","EPOCH":"2025-08-18T22:08:28.660416","MEAN_MOTION":15.06386086,"ECCENTRICITY":0.0001508,"INCLINATION":53.0551,"RA_OF_ASC_NODE":121.8786,"ARG_OF_PERICENTER":91.5113,"MEAN_ANOMALY":268.6049,"EPHEMERIS_TYPE":0,"CLASSIFICATION_TYPE":"U","NORAD_CAT_ID":47135,"ELEMENT_SET_NO":999,"REV_AT_EPOCH":26141,"BSTAR":0.00016378,"MEAN_MOTION_DOT":2.158e-5,"MEAN_MOTION_DDOT":0},{"OBJECT_NAME":"STARLINK-1856","OBJECT_ID":"2020-088X","EPOCH":"2025-08-18T22:13:46.843104","MEAN_MOTION":15.06386069,"ECCENTRICITY":0.0001671,"INCLINATION":53.055,"RA_OF_ASC_NODE":121.8586,"ARG_OF_PERICENTER":93.4844,"MEAN_ANOMALY":266.6336,"EPHEMERIS_TYPE":0,"CLASSIFICATION_TYPE":"U","NORAD_CAT_ID":47143,"ELEMENT_SET_NO":999,"REV_AT_EPOCH":26141,"BSTAR":7.4658e-5,"MEAN_MOTION_DOT":8.3e-6,"MEAN_MOTION_DDOT":0}]
